AUTCUBE 2               
1 43681U 18084K   26068.48152820  .00005282  00000+0  33524-3 0  9991
2 43681  98.0799 269.3640 0009685  28.2406 331.9345 15.09319394401889
STARLINK-3732           
1 52126U 22029AQ  26068.23352815 -.00000517  00000+0 -14413-4 0  9993
2 52126  53.2172  71.1684 0001323  89.5387 270.5757 15.08837305220854
